ORBCOMM FM20            
1 25416U 98046D   25031.92463471  .00002050  00000+0  73688-3 0  9993
2 25416  44.9935 106.3530 0002536 258.6482 101.4081 14.36692792384664
ORBCOMM FM16            
1 25417U 98046E   25031.86541826  .00002803  00000+0  96070-3 0  9994
2 25417  44.9933  99.9019 0005352 302.8581  57.1751 14.38181582384622
ORBCOMM FM15            
1 25418U 98046F   25031.87855859  .00002713  00000+0  93755-3 0  9997
2 25418  44.9963 104.5905 0004826 301.5931  58.4446 14.37857237384624
ORBCOMM FM14            
1 25419U 98046G   25031.92851815  .00002567  00000+0  88408-3 0  9998
2 25419  44.9953 102.9589 0004227 288.4884  71.5505 14.38165231384594
ORBCOMM FM13            
1 25420U 98046H   25031.93050451  .00002460  00000+0  86810-3 0  9995
2 25420  44.9967 109.6693 0006136 291.9422  68.0773 14.37074408383635
ORBCOMM FM21            
1 25475U 98053A   25031.90903858  .00002587  00000+0  91499-3 0  9997
2 25475  45.0064 194.6339 0001796 216.8741 143.1983 14.36830790377648
ORBCOMM FM22            
1 25476U 98053B   25031.62121482  .00002853  00000+0  98661-3 0  9996
2 25476  45.0056 191.8760 0003579 232.7706 127.2816 14.37700879377616
ORBCOMM FM23            
1 25477U 98053C   25031.71607527  .00002715  00000+0  95549-3 0  9995
2 25477  45.0062 197.8355 0002705 226.3378 133.7246 14.36950990377769
