<?xml version="1.0" encoding="UTF-8"?>
<ndm xmlns:xsi="http://www.w3.org/2001/XMLSchema-instance" xsi:noNamespaceSchemaLocation="https://sanaregistry.org/r/ndmxml_unqualified/ndmxml-2.0.0-master-2.0.xsd">
<omm id="CCSDS_OMM_VERS" version="2.0">
<header><CREATION_DATE/><ORIGINATOR/></header><body><segment><metadata><OBJECT_NAME>ORBCOMM FM20</OBJECT_NAME><OBJECT_ID>1998-046D</OBJECT_ID><CENTER_NAME>EARTH</CENTER_NAME><REF_FRAME>TEME</REF_FRAME><TIME_SYSTEM>UTC</TIME_SYSTEM><MEAN_ELEMENT_THEORY>SGP4</MEAN_ELEMENT_THEORY></metadata><data><meanElements><EPOCH>2025-01-31T22:11:28.438944</EPOCH><MEAN_MOTION>14.36692792</MEAN_MOTION><ECCENTRICITY>.0002536</ECCENTRICITY><INCLINATION>44.9935</INCLINATION><RA_OF_ASC_NODE>106.3530</RA_OF_ASC_NODE><ARG_OF_PERICENTER>258.6482</ARG_OF_PERICENTER><MEAN_ANOMALY>101.4081</MEAN_ANOMALY></meanElements><tleParameters><EPHEMERIS_TYPE>0</EPHEMERIS_TYPE><CLASSIFICATION_TYPE>U</CLASSIFICATION_TYPE><NORAD_CAT_ID>25416</NORAD_CAT_ID><ELEMENT_SET_NO>999</ELEMENT_SET_NO><REV_AT_EPOCH>38466</REV_AT_EPOCH><BSTAR>.73688E-3</BSTAR><MEAN_MOTION_DOT>.205E-4</MEAN_MOTION_DOT><MEAN_MOTION_DDOT>0</MEAN_MOTION_DDOT></tleParameters></data></segment></body></omm>
<omm id="CCSDS_OMM_VERS" version="2.0">
<header><CREATION_DATE/><ORIGINATOR/></header><body><segment><metadata><OBJECT_NAME>ORBCOMM FM16</OBJECT_NAME><OBJECT_ID>1998-046E</OBJECT_ID><CENTER_NAME>EARTH</CENTER_NAME><REF_FRAME>TEME</REF_FRAME><TIME_SYSTEM>UTC</TIME_SYSTEM><MEAN_ELEMENT_THEORY>SGP4</MEAN_ELEMENT_THEORY></metadata><data><meanElements><EPOCH>2025-01-31T20:46:12.137664</EPOCH><MEAN_MOTION>14.38181582</MEAN_MOTION><ECCENTRICITY>.0005352</ECCENTRICITY><INCLINATION>44.9933</INCLINATION><RA_OF_ASC_NODE>99.9019</RA_OF_ASC_NODE><ARG_OF_PERICENTER>302.8581</ARG_OF_PERICENTER><MEAN_ANOMALY>57.1751</MEAN_ANOMALY></meanElements><tleParameters><EPHEMERIS_TYPE>0</EPHEMERIS_TYPE><CLASSIFICATION_TYPE>U</CLASSIFICATION_TYPE><NORAD_CAT_ID>25417</NORAD_CAT_ID><ELEMENT_SET_NO>999</ELEMENT_SET_NO><REV_AT_EPOCH>38462</REV_AT_EPOCH><BSTAR>.9607E-3</BSTAR><MEAN_MOTION_DOT>.2803E-4</MEAN_MOTION_DOT><MEAN_MOTION_DDOT>0</MEAN_MOTION_DDOT></tleParameters></data></segment></body></omm>
<omm id="CCSDS_OMM_VERS" version="2.0">
<header><CREATION_DATE/><ORIGINATOR/></header><body><segment><metadata><OBJECT_NAME>ORBCOMM FM15</OBJECT_NAME><OBJECT_ID>1998-046F</OBJECT_ID><CENTER_NAME>EARTH</CENTER_NAME><REF_FRAME>TEME</REF_FRAME><TIME_SYSTEM>UTC</TIME_SYSTEM><MEAN_ELEMENT_THEORY>SGP4</MEAN_ELEMENT_THEORY></metadata><data><meanElements><EPOCH>2025-01-31T21:05:07.462176</EPOCH><MEAN_MOTION>14.37857237</MEAN_MOTION><ECCENTRICITY>.0004826</ECCENTRICITY><INCLINATION>44.9963</INCLINATION><RA_OF_ASC_NODE>104.5905</RA_OF_ASC_NODE><ARG_OF_PERICENTER>301.5931</ARG_OF_PERICENTER><MEAN_ANOMALY>58.4446</MEAN_ANOMALY></meanElements><tleParameters><EPHEMERIS_TYPE>0</EPHEMERIS_TYPE><CLASSIFICATION_TYPE>U</CLASSIFICATION_TYPE><NORAD_CAT_ID>25418</NORAD_CAT_ID><ELEMENT_SET_NO>999</ELEMENT_SET_NO><REV_AT_EPOCH>38462</REV_AT_EPOCH><BSTAR>.93755E-3</BSTAR><MEAN_MOTION_DOT>.2713E-4</MEAN_MOTION_DOT><MEAN_MOTION_DDOT>0</MEAN_MOTION_DDOT></tleParameters></data></segment></body></omm>
<omm id="CCSDS_OMM_VERS" version="2.0">
<header><CREATION_DATE/><ORIGINATOR/></header><body><segment><metadata><OBJECT_NAME>ORBCOMM FM14</OBJECT_NAME><OBJECT_ID>1998-046G</OBJECT_ID><CENTER_NAME>EARTH</CENTER_NAME><REF_FRAME>TEME</REF_FRAME><TIME_SYSTEM>UTC</TIME_SYSTEM><MEAN_ELEMENT_THEORY>SGP4</MEAN_ELEMENT_THEORY></metadata><data><meanElements><EPOCH>2025-01-31T22:17:03.968160</EPOCH><MEAN_MOTION>14.38165231</MEAN_MOTION><ECCENTRICITY>.0004227</ECCENTRICITY><INCLINATION>44.9953</INCLINATION><RA_OF_ASC_NODE>102.9589</RA_OF_ASC_NODE><ARG_OF_PERICENTER>288.4884</ARG_OF_PERICENTER><MEAN_ANOMALY>71.5505</MEAN_ANOMALY></meanElements><tleParameters><EPHEMERIS_TYPE>0</EPHEMERIS_TYPE><CLASSIFICATION_TYPE>U</CLASSIFICATION_TYPE><NORAD_CAT_ID>25419</NORAD_CAT_ID><ELEMENT_SET_NO>999</ELEMENT_SET_NO><REV_AT_EPOCH>38459</REV_AT_EPOCH><BSTAR>.88408E-3</BSTAR><MEAN_MOTION_DOT>.2567E-4</MEAN_MOTION_DOT><MEAN_MOTION_DDOT>0</MEAN_MOTION_DDOT></tleParameters></data></segment></body></omm>
<omm id="CCSDS_OMM_VERS" version="2.0">
<header><CREATION_DATE/><ORIGINATOR/></header><body><segment><metadata><OBJECT_NAME>ORBCOMM FM13</OBJECT_NAME><OBJECT_ID>1998-046H</OBJECT_ID><CENTER_NAME>EARTH</CENTER_NAME><REF_FRAME>TEME</REF_FRAME><TIME_SYSTEM>UTC</TIME_SYSTEM><MEAN_ELEMENT_THEORY>SGP4</MEAN_ELEMENT_THEORY></metadata><data><meanElements><EPOCH>2025-01-31T22:19:55.589664</EPOCH><MEAN_MOTION>14.37074408</MEAN_MOTION><ECCENTRICITY>.0006136</ECCENTRICITY><INCLINATION>44.9967</INCLINATION><RA_OF_ASC_NODE>109.6693</RA_OF_ASC_NODE><ARG_OF_PERICENTER>291.9422</ARG_OF_PERICENTER><MEAN_ANOMALY>68.0773</MEAN_ANOMALY></meanElements><tleParameters><EPHEMERIS_TYPE>0</EPHEMERIS_TYPE><CLASSIFICATION_TYPE>U</CLASSIFICATION_TYPE><NORAD_CAT_ID>25420</NORAD_CAT_ID><ELEMENT_SET_NO>999</ELEMENT_SET_NO><REV_AT_EPOCH>38363</REV_AT_EPOCH><BSTAR>.8681E-3</BSTAR><MEAN_MOTION_DOT>.246E-4</MEAN_MOTION_DOT><MEAN_MOTION_DDOT>0</MEAN_MOTION_DDOT></tleParameters></data></segment></body></omm>
<omm id="CCSDS_OMM_VERS" version="2.0">
<header><CREATION_DATE/><ORIGINATOR/></header><body><segment><metadata><OBJECT_NAME>ORBCOMM FM21</OBJECT_NAME><OBJECT_ID>1998-053A</OBJECT_ID><CENTER_NAME>EARTH</CENTER_NAME><REF_FRAME>TEME</REF_FRAME><TIME_SYSTEM>UTC</TIME_SYSTEM><MEAN_ELEMENT_THEORY>SGP4</MEAN_ELEMENT_THEORY></metadata><data><meanElements><EPOCH>2025-01-31T21:49:00.933312</EPOCH><MEAN_MOTION>14.36830790</MEAN_MOTION><ECCENTRICITY>.0001796</ECCENTRICITY><INCLINATION>45.0064</INCLINATION><RA_OF_ASC_NODE>194.6339</RA_OF_ASC_NODE><ARG_OF_PERICENTER>216.8741</ARG_OF_PERICENTER><MEAN_ANOMALY>143.1983</MEAN_ANOMALY></meanElements><tleParameters><EPHEMERIS_TYPE>0</EPHEMERIS_TYPE><CLASSIFICATION_TYPE>U</CLASSIFICATION_TYPE><NORAD_CAT_ID>25475</NORAD_CAT_ID><ELEMENT_SET_NO>999</ELEMENT_SET_NO><REV_AT_EPOCH>37764</REV_AT_EPOCH><BSTAR>.91499E-3</BSTAR><MEAN_MOTION_DOT>.2587E-4</MEAN_MOTION_DOT><MEAN_MOTION_DDOT>0</MEAN_MOTION_DDOT></tleParameters></data></segment></body></omm>
<omm id="CCSDS_OMM_VERS" version="2.0">
<header><CREATION_DATE/><ORIGINATOR/></header><body><segment><metadata><OBJECT_NAME>ORBCOMM FM22</OBJECT_NAME><OBJECT_ID>1998-053B</OBJECT_ID><CENTER_NAME>EARTH</CENTER_NAME><REF_FRAME>TEME</REF_FRAME><TIME_SYSTEM>UTC</TIME_SYSTEM><MEAN_ELEMENT_THEORY>SGP4</MEAN_ELEMENT_THEORY></metadata><data><meanElements><EPOCH>2025-01-31T14:54:32.960448</EPOCH><MEAN_MOTION>14.37700879</MEAN_MOTION><ECCENTRICITY>.0003579</ECCENTRICITY><INCLINATION>45.0056</INCLINATION><RA_OF_ASC_NODE>191.8760</RA_OF_ASC_NODE><ARG_OF_PERICENTER>232.7706</ARG_OF_PERICENTER><MEAN_ANOMALY>127.2816</MEAN_ANOMALY></meanElements><tleParameters><EPHEMERIS_TYPE>0</EPHEMERIS_TYPE><CLASSIFICATION_TYPE>U</CLASSIFICATION_TYPE><NORAD_CAT_ID>25476</NORAD_CAT_ID><ELEMENT_SET_NO>999</ELEMENT_SET_NO><REV_AT_EPOCH>37761</REV_AT_EPOCH><BSTAR>.98661E-3</BSTAR><MEAN_MOTION_DOT>.2853E-4</MEAN_MOTION_DOT><MEAN_MOTION_DDOT>0</MEAN_MOTION_DDOT></tleParameters></data></segment></body></omm>
<omm id="CCSDS_OMM_VERS" version="2.0">
<header><CREATION_DATE/><ORIGINATOR/></header><body><segment><metadata><OBJECT_NAME>ORBCOMM FM23</OBJECT_NAME><OBJECT_ID>1998-053C</OBJECT_ID><CENTER_NAME>EARTH</CENTER_NAME><REF_FRAME>TEME</REF_FRAME><TIME_SYSTEM>UTC</TIME_SYSTEM><MEAN_ELEMENT_THEORY>SGP4</MEAN_ELEMENT_THEORY></metadata><data><meanElements><EPOCH>2025-01-31T17:11:08.903328</EPOCH><MEAN_MOTION>14.36950990</MEAN_MOTION><ECCENTRICITY>.0002705</ECCENTRICITY><INCLINATION>45.0062</INCLINATION><RA_OF_ASC_NODE>197.8355</RA_OF_ASC_NODE><ARG_OF_PERICENTER>226.3378</ARG_OF_PERICENTER><MEAN_ANOMALY>133.7246</MEAN_ANOMALY></meanElements><tleParameters><EPHEMERIS_TYPE>0</EPHEMERIS_TYPE><CLASSIFICATION_TYPE>U</CLASSIFICATION_TYPE><NORAD_CAT_ID>25477</NORAD_CAT_ID><ELEMENT_SET_NO>999</ELEMENT_SET_NO><REV_AT_EPOCH>37776</REV_AT_EPOCH><BSTAR>.95549E-3</BSTAR><MEAN_MOTION_DOT>.2715E-4</MEAN_MOTION_DOT><MEAN_MOTION_DDOT>0</MEAN_MOTION_DDOT></tleParameters></data></segment></body></omm>

</ndm>
